[{"OBJECT_NAME":"ALSAT-2B","OBJECT_ID":"2016-059D","EPOCH":"2026-03-09T22:53:14.170272","MEAN_MOTION":14.70730607,"ECCENTRICITY":0.00016779,"INCLINATION":98.0009,"RA_OF_ASC_NODE":133.0936,"ARG_OF_PERICENTER":116.373,"MEAN_ANOMALY":243.7649,"EPHEMERIS_TYPE":0,"CLASSIFICATION_TYPE":"U","NORAD_CAT_ID":41786,"ELEMENT_SET_NO":999,"REV_AT_EPOCH":50618,"BSTAR":0.00022227999,"MEAN_MOTION_DOT":1.307e-5,"MEAN_MOTION_DDOT":0},{"OBJECT_NAME":"FENGYUN 1C DEB","OBJECT_ID":"1999-025FBY","EPOCH":"2026-03-09T11:52:24.843072","MEAN_MOTION":14.53399072,"ECCENTRICITY":0.00858421,"INCLINATION":99.0245,"RA_OF_ASC_NODE":259.4992,"ARG_OF_PERICENTER":93.3925,"MEAN_ANOMALY":267.7093,"EPHEMERIS_TYPE":0,"CLASSIFICATION_TYPE":"U","NORAD_CAT_ID":47100,"ELEMENT_SET_NO":999,"REV_AT_EPOCH":28027,"BSTAR":0.0019616909,"MEAN_MOTION_DOT":8.526e-5,"MEAN_MOTION_DDOT":0}]
